NORAD_CAT_ID,OBJECT_NAME,OBJECT_TYPE,EPOCH,MEAN_MOTION,ECCENTRICITY,INCLINATION,RA_OF_ASC_NODE,ARG_OF_PERICENTER,MEAN_ANOMALY,BSTAR,MEAN_MOTION_DOT,MEAN_MOTION_DDOT,TLE_LINE0,TLE_LINE1,TLE_LINE2,SEMIMAJOR_AXIS,PERIOD,APOGEE,PERIGEE,DECAYED
56771.0,STARLINK-6339,PAYLOAD,2023-07-11 09:39:00,15.6992631,0.0003648,69.9969,297.6799,270.2909,89.7868,8.7708e-06,8.42e-06,0.0,0 STARLINK-6339,1 56771U 23078E   23192.40208965  .00000842  00000-0  87708-5 0  9996,2 56771  69.9969 297.6799 0003648 270.2909  89.7868 15.69926310  6762,6737.245,91.724,361.568,356.652,0.0
56771.0,STARLINK-6339,PAYLOAD,2023-07-12 16:14:03,15.69927547,0.0003634,69.995,294.0966,270.169,89.909,9.8605e-06,9.73e-06,0.0,0 STARLINK-6339,1 56771U 23078E   23193.67642438  .00000973  00000-0  98605-5 0  9996,2 56771  69.9950 294.0966 0003634 270.1690  89.9090 15.69927547  6964,6737.241,91.724,361.555,356.658,0.0
56771.0,STARLINK-6339,PAYLOAD,2023-07-13 15:10:20,15.69917358,0.0003296,69.9947,291.4082,268.0823,91.9996,1.2751e-06,-6e-07,0.0,0 STARLINK-6339,1 56771U 23078E   23194.63218477 -.00000060  00000-0  12751-5 0  9991,2 56771  69.9947 291.4082 0003296 268.0823  91.9996 15.69917358  7113,6737.27,91.725,361.356,356.915,0.0
56771.0,STARLINK-6339,PAYLOAD,2023-07-14 09:31:21,15.69932344,0.0003734,69.9961,289.2629,265.8931,94.1838,1.3484e-05,1.409e-05,0.0,0 STARLINK-6339,1 56771U 23078E   23195.39677391  .00001409  00000-0  13484-4 0  9999,2 56771  69.9961 289.2629 0003734 265.8931  94.1838 15.69932344  7238,6737.228,91.724,361.608,356.577,0.0
56771.0,STARLINK-6339,PAYLOAD,2023-07-14 23:17:07,15.69923396,0.0003316,69.9978,287.6457,263.8151,96.2667,-3.9748e-06,-6.91e-06,0.0,0 STARLINK-6339,1 56771U 23078E   23195.97022807 -.00000691  00000-0 -39748-5 0  9995,2 56771  69.9978 287.6457 0003316 263.8151  96.2667 15.69923396  7325,6737.253,91.724,361.352,356.884,0.0
56771.0,STARLINK-6339,PAYLOAD,2023-07-15 08:27:39,15.6990895,0.0003138,69.9963,286.5723,259.0772,101.0071,1.3347e-05,1.391e-05,0.0,0 STARLINK-6339,1 56771U 23078E   23196.35253776  .00001391  00000-0  13347-4 0  9991,2 56771  69.9963 286.5723 0003138 259.0772 101.0071 15.69908950  7380,6737.294,91.725,361.274,357.045,0.0
56771.0,STARLINK-6339,PAYLOAD,2023-07-15 16:06:24,15.69915272,0.0003072,69.9946,285.6744,256.6741,103.4112,1.5551e-05,1.657e-05,0.0,0 STARLINK-6339,1 56771U 23078E   23196.67111846  .00001657  00000-0  15551-4 0  9991,2 56771  69.9946 285.6744 0003072 256.6741 103.4112 15.69915272  7433,6737.276,91.725,361.211,357.072,0.0
56771.0,STARLINK-6339,PAYLOAD,2023-07-16 07:23:55,15.6993027,0.0003236,69.9941,283.8814,261.5383,98.5446,4.319e-06,3.07e-06,0.0,0 STARLINK-6339,1 56771U 23078E   23197.30827749  .00000307  00000-0  43190-5 0  9990,2 56771  69.9941 283.8814 0003236 261.5383  98.5446 15.69930270  7535,6737.233,91.724,361.279,356.918,0.0
56771.0,STARLINK-6339,PAYLOAD,2023-07-16 22:41:27,15.69914209,0.0002768,69.9966,282.0937,261.9077,98.1805,5.6608e-06,4.68e-06,0.0,0 STARLINK-6339,1 56771U 23078E   23197.94545669  .00000468  00000-0  56608-5 0  9994,2 56771  69.9966 282.0937 0002768 261.9077  98.1805 15.69914209  7632,6737.279,91.725,361.009,357.28,0.0
56771.0,STARLINK-6339,PAYLOAD,2023-07-17 07:51:57,15.69922517,0.0003492,69.9952,281.0171,263.4641,96.6157,3.396e-05,3.872e-05,0.0,0 STARLINK-6339,1 56771U 23078E   23198.32774596  .00003872  00000-0  33960-4 0  9997,2 56771  69.9952 281.0171 0003492 263.4641  96.6157 15.69922517  7695,6737.256,91.724,361.473,356.768,0.0
56771.0,STARLINK-6339,PAYLOAD,2023-07-17 17:02:28,15.69920516,0.0003127,69.996,279.9409,270.422,89.6618,1.4309e-06,-4.1e-07,0.0,0 STARLINK-6339,1 56771U 23078E   23198.71005039 -.00000041  00000-0  14309-5 0  9992,2 56771  69.9960 279.9409 0003127 270.4220  89.6618 15.69920516  7758,6737.261,91.724,361.233,357.02,0.0
56771.0,STARLINK-6339,PAYLOAD,2023-07-18 17:30:30,15.69927422,0.000299,69.9981,277.0764,268.4788,91.6065,1.6405e-05,1.761e-05,0.0,0 STARLINK-6339,1 56771U 23078E   23199.72951619  .00001761  00000-0  16405-4 0  9995,2 56771  69.9981 277.0764 0002990 268.4788  91.6065 15.69927422  7917,6737.242,91.724,361.121,357.092,0.0
56771.0,STARLINK-6339,PAYLOAD,2023-07-19 08:48:02,15.69915042,0.00032,69.9992,275.2863,270.2659,89.8169,-8.647e-06,-1.252e-05,0.0,0 STARLINK-6339,1 56771U 23078E   23200.36669092 -.00001252  00000-0 -86470-5 0  9996,2 56771  69.9992 275.2863 0003200 270.2659  89.8169 15.69915042  8013,6737.277,91.725,361.298,356.986,0.0
56771.0,STARLINK-6339,PAYLOAD,2023-07-19 14:55:02,15.69928392,0.0002877,69.999,274.5701,259.3289,100.7583,2.9288e-05,3.311e-05,0.0,0 STARLINK-6339,1 56771U 23078E   23200.62155347  .00003311  00000-0  29288-4 0  9997,2 56771  69.9990 274.5701 0002877 259.3289 100.7583 15.69928392  8059,6737.239,91.724,361.042,357.166,0.0
56771.0,STARLINK-6339,PAYLOAD,2023-07-20 13:51:19,15.69924667,0.0002927,69.9982,271.8844,254.9949,105.0923,2.0802e-05,2.289e-05,0.0,0 STARLINK-6339,1 56771U 23078E   23201.57730632  .00002289  00000-0  20802-4 0  9994,2 56771  69.9982 271.8844 0002927 254.9949 105.0923 15.69924667  8202,6737.25,91.724,361.087,357.143,0.0
56771.0,STARLINK-6339,PAYLOAD,2023-07-21 15:51:05,15.69927727,0.0003632,69.9969,268.8375,264.1495,95.9287,3.2933e-06,1.83e-06,0.0,0 STARLINK-6339,1 56771U 23078E   23202.66048546  .00000183  00000-0  32933-5 0  9991,2 56771  69.9969 268.8375 0003632 264.1495  95.9287 15.69927727  8373,6737.241,91.724,361.553,356.659,0.0
56771.0,STARLINK-6339,PAYLOAD,2023-07-23 03:01:24,15.69921993,0.0003482,69.997,264.7132,257.8126,102.268,2.8343e-05,3.196e-05,0.0,0 STARLINK-6339,1 56771U 23078E   23204.12597303  .00003196  00000-0  28343-4 0  9990,2 56771  69.9970 264.7132 0003482 257.8126 102.2680 15.69921993  8349,6737.257,91.724,361.468,356.776,0.0
56771.0,STARLINK-6339,PAYLOAD,2023-07-25 13:07:59,15.69916157,0.0003475,69.9965,257.9067,272.797,87.2828,3.2369e-06,1.76e-06,0.0,0 STARLINK-6339,1 56771U 23078E   23206.54721594  .00000176  00000-0  32369-5 0  9998,2 56771  69.9965 257.9067 0003475 272.7970  87.2828 15.69916157  8723,6737.274,91.725,361.48,356.798,0.0
56771.0,STARLINK-6339,PAYLOAD,2023-07-26 12:04:15,15.69915609,0.0003367,69.9984,255.2201,273.8274,86.2537,3.7576e-06,2.39e-06,0.0,0 STARLINK-6339,1 56771U 23078E   23207.50296185  .00000239  00000-0  37576-5 0  9993,2 56771  69.9984 255.2201 0003367 273.8274  86.2537 15.69915609  8877,6737.275,91.725,361.409,356.872,0.0
56771.0,STARLINK-6339,PAYLOAD,2023-07-26 15:07:45,15.69930995,0.000337,69.9982,254.8614,270.6247,89.4562,3.1665e-05,3.597e-05,0.0,0 STARLINK-6339,1 56771U 23078E   23207.63038780  .00003597  00000-0  31665-4 0  9994,2 56771  69.9982 254.8614 0003370 270.6247  89.4562 15.69930995  8897,6737.231,91.724,361.367,356.826,0.0
56771.0,STARLINK-6339,PAYLOAD,2023-07-27 01:50:03,15.69900272,0.0003342,69.9982,253.6078,267.0433,93.038,-2.5943e-05,-3.328e-05,0.0,0 STARLINK-6339,1 56771U 23078E   23208.07642416 -.00003328  00000-0 -25943-4 0  9996,2 56771  69.9982 253.6078 0003342 267.0433  93.0380 15.69900272  9226,6737.319,91.726,361.436,356.933,0.0
56771.0,STARLINK-6339,PAYLOAD,2023-07-27 09:28:48,15.69912964,0.0003376,69.9985,252.7119,265.4476,94.6334,-1.7089e-07,-2.33e-06,0.0,0 STARLINK-6339,1 56771U 23078E   23208.39500347 -.00000233  00000-0 -17089-6 0  9993,2 56771  69.9985 252.7119 0003376 265.4476  94.6334 15.69912964  9273,6737.283,91.725,361.423,356.874,0.0
56771.0,STARLINK-6339,PAYLOAD,2023-07-27 12:32:18,15.69927054,0.0003379,69.9987,252.3537,267.9835,92.0974,3.7796e-05,4.335e-05,0.0,0 STARLINK-6339,1 56771U 23078E   23208.52243290  .00004335  00000-0  37796-4 0  9999,2 56771  69.9987 252.3537 0003379 267.9835  92.0974 15.69927054  9036,6737.243,91.724,361.384,356.831,0.0
56771.0,STARLINK-6339,PAYLOAD,2023-07-27 15:35:48,15.69938078,0.00034,69.999,251.9955,267.1157,92.9649,0.00011554,0.00013711,0.0,0 STARLINK-6339,1 56771U 23078E   23208.64986492  .00013711  00000-0  11554-3 0  9991,2 56771  69.9990 251.9955 0003400 267.1157  92.9649 15.69938078  9310,6737.211,91.723,361.367,356.786,0.0
56771.0,STARLINK-6339,PAYLOAD,2023-07-27 20:11:03,15.69947113,0.0003323,69.9993,251.4576,266.9263,93.1553,0.00022748,0.00027254,0.0,0 STARLINK-6339,1 56771U 23078E   23208.84101537  .00027254  00000-0  22748-3 0  9996,2 56771  69.9993 251.4576 0003323 266.9263  93.1553 15.69947113  9087,6737.185,91.723,361.289,356.812,0.0
56771.0,STARLINK-6339,PAYLOAD,2023-07-28 02:18:04,15.69942529,0.0003809,69.999,250.741,261.5274,98.549,7.9881e-05,9.411e-05,0.0,0 STARLINK-6339,1 56771U 23078E   23209.09588031  .00009411  00000-0  79881-4 0  9998,2 56771  69.9990 250.7410 0003809 261.5274  98.5490 15.69942529  9383,6737.198,91.723,361.63,356.497,0.0
56771.0,STARLINK-6339,PAYLOAD,2023-07-28 13:00:19,15.69941124,0.0003305,69.9995,249.4879,267.2257,92.856,0.00010113,0.00011973,0.0,0 STARLINK-6339,1 56771U 23078E   23209.54189598  .00011973  00000-0  10113-3 0  9991,2 56771  69.9995 249.4879 0003305 267.2257  92.8560 15.69941124  9191,6737.202,91.723,361.294,356.841,0.0
56771.0,STARLINK-6339,PAYLOAD,2023-07-28 14:32:04,15.69941272,0.0003501,69.9993,249.3081,262.6931,97.3866,0.00012025,0.00014281,0.0,0 STARLINK-6339,1 56771U 23078E   23209.60561229  .00014281  00000-0  12025-3 0  9992,2 56771  69.9993 249.3081 0003501 262.6931  97.3866 15.69941272  9462,6737.202,91.723,361.426,356.708,0.0
56771.0,STARLINK-6339,PAYLOAD,2023-07-29 02:46:05,15.69935193,0.0002957,69.9986,247.8742,264.6014,95.4844,8.5489e-05,0.00010083,0.0,0 STARLINK-6339,1 56771U 23078E   23210.11534600  .00010083  00000-0  85489-4 0  9994,2 56771  69.9986 247.8742 0002957 264.6014  95.4844 15.69935193  9548,6737.219,91.724,361.077,357.092,0.0
56771.0,STARLINK-6339,PAYLOAD,2023-07-29 15:00:07,15.69926445,0.0002636,69.9982,246.4419,278.4944,81.5953,6.598e-06,5.81e-06,0.0,0 STARLINK-6339,1 56771U 23078E   23210.62508275  .00000581  00000-0  65980-5 0  9996,2 56771  69.9982 246.4419 0002636 278.4944  81.5953 15.69926445  9625,6737.244,91.724,360.885,357.334,0.0
